KUIPER-00133            
1 65764U 25217C   25325.66672454 -.00031372  00000+0 -28267-2 0  9996
2 65764  51.8902 171.3671 0009669 332.7276  93.6771 14.94988751  5454
KUIPER-00139            
1 65765U 25217D   25325.66672454 -.00008139  00000+0 -42998-3 0  9990
2 65765  51.8730 168.7888 0006546 299.0001 287.0214 15.13704214  5246
KUIPER-00142            
1 65766U 25217E   25325.53701691  .00046806  00000+0  12458-2 0  9991
2 65766  51.8671 166.8840 0002460 253.3004 106.7713 15.37740531  8786
KUIPER-00145            
1 65767U 25217F   25325.66672454 -.00730635  00000+0 -22820-1 0  9995
2 65767  51.8699 166.3848 0004223 277.4533  15.6355 15.35200885  5691
KUIPER-00147            
1 65768U 25217G   25325.66672454 -.00011345  00000+0 -37781-3 0  9990
2 65768  51.8654 166.8726 0007015 300.7737  93.7038 15.29591451  5354
KUIPER-00148            
1 65769U 25217H   25325.66672454 -.01578856  00000+0 -55768-1 0  9990
2 65769  51.8620 167.1035 0007806 320.1169 328.0261 15.31625861  5198
KUIPER-00150            
1 65770U 25217J   25325.66672454 -.00327795  00000+0 -23853-1 0  9995
2 65770  51.8950 169.8980 0007943 310.3405 359.8980 15.05019172  5564
KUIPER-00151            
1 65771U 25217K   25325.66672454 -.00984117  00000+0 -42352-1 0  9998
2 65771  51.8733 167.0492 0003347 253.2467  94.8382 15.24840958  5869
